ONEWEB-0205             
1 48226U 21031S   25202.48209216 -.00000944  00000+0 -25808-2 0  9995
2 48226  87.9051 355.4956 0001729  93.7330 266.3997 13.14509638204823
ONEWEB-0206             
1 48227U 21031T   25202.45513970 -.00000149  00000+0 -43604-3 0  9990
2 48227  87.9052 355.4809 0001725  95.4785 264.6542 13.14503570204771
ONEWEB-0182             
1 48228U 21031U   25202.45039266 -.00000361  00000+0 -10080-2 0  9999
2 48228  87.9056 355.5260 0001658 101.5868 258.5448 13.14503137204983
ONEWEB-0186             
1 48229U 21031V   25202.46147061 -.00001012  00000+0 -27630-2 0  9997
2 48229  87.9055 355.4843 0001725  94.6831 265.4495 13.14505540204930
ONEWEB-0181             
1 48230U 21031W   25202.43928068  .00000017  00000+0  11694-4 0  9997
2 48230  87.9058 355.5616 0001794  89.7129 270.4206 13.14504014204789
ONEWEB-0188             
1 48231U 21031X   25202.47734630  .00000153  00000+0  37847-3 0  9990
2 48231  87.9055 355.5447 0001773  95.9058 264.2274 13.14503702204695
ONEWEB-0220             
1 48232U 21031Y   25202.44086924 -.00000065  00000+0 -21029-3 0  9993
2 48232  87.9051 355.4932 0001571  93.8047 266.3262 13.14502439204956
ONEWEB-0165             
1 48233U 21031Z   25202.46940037 -.00000233  00000+0 -66421-3 0  9992
2 48233  87.9055 355.5305 0001602  90.9907 269.1406 13.14503089204913
